{
  "norad_id": 55156,
  "name": "ONEWEB-0614",
  "history": [
    {
      "epoch": "2026-03-28T19:33:06.682752",
      "apogee_km": 1218.9223983888714,
      "perigee_km": 1216.43036393478,
      "latitude_deg": 84.57610123310057,
      "longitude_deg": 133.80742527986877,
      "semi_major_axis_km": 7595.813381161825,
      "eccentricity": 0.00016404,
      "inclination_deg": 87.8893,
      "raan_deg": 37.0549,
      "arg_perigee_deg": 78.5542,
      "mean_anomaly_deg": 281.5771,
      "mean_motion_rev_day": 13.11418581
    },
    {
      "epoch": "2026-03-29T02:52:34.741920",
      "apogee_km": 1218.9278467983186,
      "perigee_km": 1216.4242668147954,
      "latitude_deg": 22.71287154702372,
      "longitude_deg": 163.1052688001655,
      "semi_major_axis_km": 7595.813056806556,
      "eccentricity": 0.0001648,
      "inclination_deg": 87.8894,
      "raan_deg": 36.9943,
      "arg_perigee_deg": 78.3896,
      "mean_anomaly_deg": 281.7417,
      "mean_motion_rev_day": 13.11418665
    }
  ]
}